ONEWEB-0645             
1 55809U 23029P   25005.48050485 -.00000123  00000+0 -34042-3 0  9992
2 55809  87.9164  49.9075 0001487  96.6312 263.4990 13.19724596 89305
ONEWEB-0646             
1 55810U 23029Q   25005.35888145  .00000047  00000+0  85200-4 0  9998
2 55810  87.9162  49.9279 0001758 106.9791 253.1534 13.19726744 89271
ONEWEB-0648             
1 55811U 23029R   25005.76837491  .00000137  00000+0  33576-3 0  9990
2 55811  87.9000  34.5818 0001076 125.5565 234.5665 13.14504090 90814
ONEWEB-0649             
1 55812U 23029S   25005.39757759  .00000035  00000+0  55096-4 0  9997
2 55812  87.9160  49.9123 0001401 109.9743 250.1541 13.19726076 89312
ONEWEB-0650             
1 55813U 23029T   25005.16539089  .00000082  00000+0  17361-3 0  9991
2 55813  87.9163  49.9646 0001717 103.8899 256.2425 13.19725706 89251
ONEWEB-0652             
1 55814U 23029U   25005.52098882  .00000187  00000+0  46904-3 0  9994
2 55814  87.8993  34.6417 0001911  91.1513 268.9836 13.14502094 90040
ONEWEB-0653             
1 55815U 23029V   25005.50512986  .00000026  00000+0  36276-4 0  9993
2 55815  87.8995  34.6299 0001795  87.0501 273.0834 13.14502236 90078
ONEWEB-0654             
1 55816U 23029W   25005.50037489  .00000101  00000+0  23702-3 0  9997
2 55816  87.8993  34.6356 0002058  83.2293 276.9071 13.14504382 90091
